{
  "type": "FeatureCollection",
  "features": [
    {
      "type": "Feature",
      "properties": {
        "norad_id": 35455,
        "name": "COSMOS 2251 DEB",
        "group": "cosmos-2251-debris",
        "lat": 73.05310070030664,
        "lon": 52.29190380548387,
        "alt_km": 673.9110445342021,
        "timestamp": "2025-12-08T17:43:05.334097+00:00",
        "meta_object_name": "COSMOS 2251 DEB",
        "meta_object_id": "1993-036AKZ",
        "meta_epoch": "2025-12-08T04:01:59.008512",
        "meta_mean_motion": 14.49316201,
        "meta_eccentricity": 0.00988658,
        "meta_inclination": 74.0291,
        "meta_ra_of_asc_node": 303.385,
        "meta_arg_of_pericenter": 48.0175,
        "meta_mean_anomaly": 312.9353,
        "meta_ephemeris_type": 0,
        "meta_classification_type": "U",
        "meta_norad_cat_id": 35455,
        "meta_element_set_no": 999,
        "meta_rev_at_epoch": 86477,
        "meta_bstar": 0.0020479607,
        "meta_mean_motion_dot": 8.302e-05,
        "meta_mean_motion_ddot": 0,
        "tle_line1": "1 35455U 93036AKZ 25342.16804408  .00008302  00000+0  20480-2 0  9998",
        "tle_line2": "2 35455  74.0291 303.3850 0098865  48.0175 312.9353 14.49316201864779"
      },
      "geometry": {
        "type": "Point",
        "coordinates": [
          52.29190380548387,
          73.05310070030664
        ]
      }
    },
    {
      "type": "Feature",
      "properties": {
        "norad_id": 35456,
        "name": "COSMOS 2251 DEB",
        "group": "cosmos-2251-debris",
        "lat": 11.571192715447063,
        "lon": -58.11245226579944,
        "alt_km": 709.3924715796393,
        "timestamp": "2025-12-08T17:43:05.334107+00:00",
        "meta_object_name": "COSMOS 2251 DEB",
        "meta_object_id": "1993-036ALA",
        "meta_epoch": "2025-12-07T16:26:35.520576",
        "meta_mean_motion": 14.69275987,
        "meta_eccentricity": 0.0065481,
        "meta_inclination": 73.9502,
        "meta_ra_of_asc_node": 127.3161,
        "meta_arg_of_pericenter": 338.308,
        "meta_mean_anomaly": 21.5318,
        "meta_ephemeris_type": 0,
        "meta_classification_type": "U",
        "meta_norad_cat_id": 35456,
        "meta_element_set_no": 999,
        "meta_rev_at_epoch": 65801,
        "meta_bstar": 0.0028319025,
        "meta_mean_motion_dot": 0.00017275,
        "meta_mean_motion_ddot": 0,
        "tle_line1": "1 35456U 93036ALA 25341.68513334  .00017275  00000+0  28319-2 0  9998",
        "tle_line2": "2 35456  73.9502 127.3161 0065481 338.3080  21.5318 14.69275987658019"
      },
      "geometry": {
        "type": "Point",
        "coordinates": [
          -58.11245226579944,
          11.571192715447063
        ]
      }
    },
    {
      "type": "Feature",
      "properties": {
        "norad_id": 35459,
        "name": "COSMOS 2251 DEB",
        "group": "cosmos-2251-debris",
        "lat": -65.09357790881076,
        "lon": 156.1701470759992,
        "alt_km": 783.4442228750822,
        "timestamp": "2025-12-08T17:43:05.334118+00:00",
        "meta_object_name": "COSMOS 2251 DEB",
        "meta_object_id": "1993-036ALD",
        "meta_epoch": "2025-12-05T21:33:57.544416",
        "meta_mean_motion": 14.37446258,
        "meta_eccentricity": 0.00165225,
        "meta_inclination": 73.8704,
        "meta_ra_of_asc_node": 199.9991,
        "meta_arg_of_pericenter": 150.1634,
        "meta_mean_anomaly": 210.0464,
        "meta_ephemeris_type": 0,
        "meta_classification_type": "U",
        "meta_norad_cat_id": 35459,
        "meta_element_set_no": 999,
        "meta_rev_at_epoch": 58263,
        "meta_bstar": 0.00040904083,
        "meta_mean_motion_dot": 1.198e-05,
        "meta_mean_motion_ddot": 0,
        "tle_line1": "1 35459U 93036ALD 25339.89858269  .00001198  00000+0  40904-3 0  9992",
        "tle_line2": "2 35459  73.8704 199.9991 0016522 150.1634 210.0464 14.37446258582635"
      },
      "geometry": {
        "type": "Point",
        "coordinates": [
          156.1701470759992,
          -65.09357790881076
        ]
      }
    },
    {
      "type": "Feature",
      "properties": {
        "norad_id": 35462,
        "name": "COSMOS 2251 DEB",
        "group": "cosmos-2251-debris",
        "lat": 63.4057824666968,
        "lon": 61.08070934787845,
        "alt_km": 846.1140976887946,
        "timestamp": "2025-12-08T17:43:05.334128+00:00",
        "meta_object_name": "COSMOS 2251 DEB",
        "meta_object_id": "1993-036ALG",
        "meta_epoch": "2025-12-08T02:04:39.265248",
        "meta_mean_motion": 14.29231341,
        "meta_eccentricity": 0.00869303,
        "meta_inclination": 74.0371,
        "meta_ra_of_asc_node": 277.1345,
        "meta_arg_of_pericenter": 313.252,
        "meta_mean_anomaly": 46.1395,
        "meta_ephemeris_type": 0,
        "meta_classification_type": "U",
        "meta_norad_cat_id": 35462,
        "meta_element_set_no": 999,
        "meta_rev_at_epoch": 66314,
        "meta_bstar": 0.0023855803,
        "meta_mean_motion_dot": 6.294e-05,
        "meta_mean_motion_ddot": 0,
        "tle_line1": "1 35462U 93036ALG 25342.08656557  .00006294  00000+0  23856-2 0  9995",
        "tle_line2": "2 35462  74.0371 277.1345 0086930 313.2520  46.1395 14.29231341663143"
      },
      "geometry": {
        "type": "Point",
        "coordinates": [
          61.08070934787845,
          63.4057824666968
        ]
      }
    },
    {
      "type": "Feature",
      "properties": {
        "norad_id": 35465,
        "name": "COSMOS 2251 DEB",
        "group": "cosmos-2251-debris",
        "lat": -44.7585035229787,
        "lon": -172.03561335498952,
        "alt_km": 723.0932081646297,
        "timestamp": "2025-12-08T17:43:05.334139+00:00",
        "meta_object_name": "COSMOS 2251 DEB",
        "meta_object_id": "1993-036ALK",
        "meta_epoch": "2025-11-29T22:48:34.232544",
        "meta_mean_motion": 14.44263019,
        "meta_eccentricity": 0.00634289,
        "meta_inclination": 73.9997,
        "meta_ra_of_asc_node": 220.8763,
        "meta_arg_of_pericenter": 24.0529,
        "meta_mean_anomaly": 336.3567,
        "meta_ephemeris_type": 0,
        "meta_classification_type": "U",
        "meta_norad_cat_id": 35465,
        "meta_element_set_no": 999,
        "meta_rev_at_epoch": 87057,
        "meta_bstar": 0.00049692277,
        "meta_mean_motion_dot": 1.723e-05,
        "meta_mean_motion_ddot": 0,
        "tle_line1": "1 35465U 93036ALK 25333.95039621  .00001723  00000+0  49692-3 0  9990",
        "tle_line2": "2 35465  73.9997 220.8763 0063428  24.0529 336.3567 14.44263019870576"
      },
      "geometry": {
        "type": "Point",
        "coordinates": [
          -172.03561335498952,
          -44.7585035229787
        ]
      }
    },
    {
      "type": "Feature",
      "properties": {
        "norad_id": 35469,
        "name": "COSMOS 2251 DEB",
        "group": "cosmos-2251-debris",
        "lat": 64.48111955508382,
        "lon": 68.28830650019437,
        "alt_km": 744.917880215994,
        "timestamp": "2025-12-08T17:43:05.334150+00:00",
        "meta_object_name": "COSMOS 2251 DEB",
        "meta_object_id": "1993-036ALP",
        "meta_epoch": "2025-12-07T11:35:01.685760",
        "meta_mean_motion": 14.4981221,
        "meta_eccentricity": 0.00771882,
        "meta_inclination": 74.0177,
        "meta_ra_of_asc_node": 33.7518,
        "meta_arg_of_pericenter": 190.4188,
        "meta_mean_anomaly": 169.5378,
        "meta_ephemeris_type": 0,
        "meta_classification_type": "U",
        "meta_norad_cat_id": 35469,
        "meta_element_set_no": 999,
        "meta_rev_at_epoch": 88035,
        "meta_bstar": 0.00021613901,
        "meta_mean_motion_dot": 8.36e-06,
        "meta_mean_motion_ddot": 0,
        "tle_line1": "1 35469U 93036ALP 25341.48265840  .00000836  00000+0  21614-3 0  9993",
        "tle_line2": "2 35469  74.0177  33.7518 0077188 190.4188 169.5378 14.49812210880359"
      },
      "geometry": {
        "type": "Point",
        "coordinates": [
          68.28830650019437,
          64.48111955508382
        ]
      }
    },
    {
      "type": "Feature",
      "properties": {
        "norad_id": 35475,
        "name": "COSMOS 2251 DEB",
        "group": "cosmos-2251-debris",
        "lat": -1.5534809238009386,
        "lon": 172.94092443904887,
        "alt_km": 670.6709607729063,
        "timestamp": "2025-12-08T17:43:05.334160+00:00",
        "meta_object_name": "COSMOS 2251 DEB",
        "meta_object_id": "1993-036ALV",
        "meta_epoch": "2025-12-07T22:07:12.011520",
        "meta_mean_motion": 14.69575528,
        "meta_eccentricity": 0.0020814,
        "meta_inclination": 74.0218,
        "meta_ra_of_asc_node": 174.969,
        "meta_arg_of_pericenter": 248.2857,
        "meta_mean_anomaly": 111.6098,
        "meta_ephemeris_type": 0,
        "meta_classification_type": "U",
        "meta_norad_cat_id": 35475,
        "meta_element_set_no": 999,
        "meta_rev_at_epoch": 65546,
        "meta_bstar": 0.0021858185,
        "meta_mean_motion_dot": 0.0001302,
        "meta_mean_motion_ddot": 0,
        "tle_line1": "1 35475U 93036ALV 25341.92166680  .00013020  00000+0  21858-2 0  9999",
        "tle_line2": "2 35475  74.0218 174.9690 0020814 248.2857 111.6098 14.69575528655469"
      },
      "geometry": {
        "type": "Point",
        "coordinates": [
          172.94092443904887,
          -1.5534809238009386
        ]
      }
    }
  ]
}